SL-14 R/B               
1 16792U 86046B   25358.83926682  .00000555  00000+0  61098-4 0  9998
2 16792  82.4817 150.8871 0024504 114.0550 246.3234 14.85497265115291
SL-14 R/B               
1 16882U 86055B   25359.04933111  .00000487  00000+0  53484-4 0  9991
2 16882  82.5194 196.8057 0018007 215.6456 259.8644 14.85542099108281
AJISAI (EGS)            
1 16908U 86061A   25359.28588148 -.00000082  00000+0  11154-3 0  9998
2 16908  50.0112 322.1389 0011316  97.3829  38.9436 12.44514437458738
COSMOS 1812             
1 17295U 87003A   25359.23284486  .00115110  00000+0  66981-3 0  9994
2 17295  82.4872 278.4691 0006324  69.1658 291.0285 15.78092843132622
SL-14 R/B               
1 17567U 87024B   25358.96715607  .00000579  00000+0  63168-4 0  9999
2 17567  82.5278 162.9677 0019120 144.4774 215.7720 14.86036427 77034
COSMOS 1833             
1 17589U 87027A   25358.75225226  .00000284  00000+0  17763-3 0  9998
2 17589  70.9160 123.5251 0023060 314.9441  44.9809 14.13027852999724
SL-16 R/B               
1 17590U 87027B   25359.29601046 -.00000065  00000+0 -85895-5 0  9990
2 17590  71.0038  73.2605 0007216 246.6075 113.4290 14.17156582  4804
SL-14 R/B               
1 17912U 87038B   25358.99105681  .00000501  00000+0  55314-4 0  9995
2 17912  82.5010   7.1605 0020608  54.4396 305.8737 14.85272215 68143
COSMOS 1844             
1 17973U 87041A   25359.00799532  .00000335  00000+0  19901-3 0  9999
2 17973  70.8967 191.6949 0029590 137.6859 222.6553 14.14531331993023
SL-14 R/B               
1 18153U 87055B   25359.18285528  .00000509  00000+0  56035-4 0  9992
2 18153  82.4991  59.2615 0019176 258.9895 100.9164 14.85533431 58877
COSMOS 1867             
1 18187U 87060A   25358.75891044 -.00000042  00000+0  21734-4 0  9994
2 18187  65.0090 156.5437 0013671 272.2694  87.6825 14.31487908  9211
SL-14 R/B               
1 18749U 88001B   25359.17329238  .00000508  00000+0  55900-4 0  9990
2 18749  82.5134 265.4536 0019383 122.0248 238.2854 14.85436295 30965
